NORAD_CAT_ID,OBJECT_NAME,OBJECT_TYPE,EPOCH,MEAN_MOTION,ECCENTRICITY,INCLINATION,RA_OF_ASC_NODE,ARG_OF_PERICENTER,MEAN_ANOMALY,BSTAR,MEAN_MOTION_DOT,MEAN_MOTION_DDOT,TLE_LINE0,TLE_LINE1,TLE_LINE2,SEMIMAJOR_AXIS,PERIOD,APOGEE,PERIGEE,DECAYED
54094.0,STARLINK-5219,PAYLOAD,2022-11-30 06:00:00,15.72995585,0.0004082,53.2173,306.7514,308.1229,170.9201,-0.0089275,-0.01112388,0.0,0 STARLINK-5219,1 54094U 22136AV  22334.25001157 -.01112388  00000-0 -89275-2 0  9990,2 54094  53.2173 306.7514 0004082 308.1229 170.9201 15.72995585  6899,6728.478,91.545,353.09,347.596,0.0
54094.0,STARLINK-5219,PAYLOAD,2022-11-30 14:00:01,15.72195343,0.0005953999999999,53.2174,305.1019,280.2174,287.0777,-0.0094758,-0.01138954,0.0,0 STARLINK-5219,1 54094U 22136AV  22334.58335648 -.01138954  00000-0 -94758-2 0  9990,2 54094  53.2174 305.1019 0005954 280.2174 287.0777 15.72195343  1304,6730.761,91.592,356.634,348.619,0.0
54094.0,STARLINK-5219,PAYLOAD,2022-11-30 22:00:00,15.71365807,0.0006862999999999,53.2175,303.4546,270.0629,24.3835,-0.0095485,-0.0111164,0.0,0 STARLINK-5219,1 54094U 22136AV  22334.91667824 -.01111640  00000-0 -95485-2 0  9992,2 54094  53.2175 303.4546 0006863 270.0629  24.3835 15.71365807  6993,6733.13,91.64,359.616,350.374,0.0
54094.0,STARLINK-5219,PAYLOAD,2022-12-01 14:00:01,15.69759613,0.0002637,53.2174,300.1695,272.742,193.185,-0.010602,-0.01165132,0.0,0 STARLINK-5219,1 54094U 22136AV  22335.58334491 -.01165132  00000-0 -10602-1 0  9999,2 54094  53.2174 300.1695 0002637 272.7420 193.1850 15.69759613  1305,6737.722,91.734,361.364,357.81,0.0
54094.0,STARLINK-5219,PAYLOAD,2022-12-01 22:00:00,15.68854595,0.0005838999999999,53.2169,298.5302,268.2145,282.0311,-0.0096619,-0.01020971,0.0,0 STARLINK-5219,1 54094U 22136AV  22335.91667824 -.01020971  00000-0 -96619-2 0  9999,2 54094  53.2169 298.5302 0005839 268.2145 282.0311 15.68854595  1309,6740.313,91.787,366.11300000000006,358.242,0.0
54094.0,STARLINK-5219,PAYLOAD,2022-12-02 00:00:00,15.68713605,0.0005344999999999,53.2173,298.1201,268.3261,32.8036,-0.010531,-0.01097134,0.0,0 STARLINK-5219,1 54094U 22136AV  22336.00001157 -.01097134  00000-0 -10531-1 0  9994,2 54094  53.2173 298.1201 0005345 268.3261  32.8036 15.68713605  7161,6740.717,91.795,366.184,358.97900000000016,0.0
54094.0,STARLINK-5219,PAYLOAD,2022-12-02 06:00:00,15.6813941,0.0001646,53.2173,296.8938,252.6889,20.807,-0.01136,-0.01166488,0.0,0 STARLINK-5219,1 54094U 22136AV  22336.25001157 -.01166488  00000-0 -11360-1 0  9991,2 54094  53.2173 296.8938 0001646 252.6889  20.8070 15.68139410  7201,6742.361999999999,91.829,365.337,363.117,0.0
54094.0,STARLINK-5219,PAYLOAD,2022-12-02 14:00:01,15.6730311,4.33e-05,53.217,295.2557,67.0239,288.807,-0.011437,-0.01137217,0.0,0 STARLINK-5219,1 54094U 22136AV  22336.58334491 -.01137217  00000-0 -11437-1 0  9990,2 54094  53.2170 295.2557 0000433  67.0239 288.8070 15.67303110  1308,6744.76,91.878,366.917,366.333,0.0
54094.0,STARLINK-5219,PAYLOAD,2022-12-02 22:00:00,15.66508418,0.0001151,53.2169,293.6209,72.4928,4.6724,-0.01211,-0.01163229,0.0,0 STARLINK-5219,1 54094U 22136AV  22336.91667824 -.01163229  00000-0 -12110-1 0  9997,2 54094  53.2169 293.6209 0001151  72.4928   4.6724 15.66508418  1302,6747.041,91.924,369.6830000000001,368.129,0.0
54094.0,STARLINK-5219,PAYLOAD,2022-12-03 08:00:01,15.65468363,0.0001155,53.2173,291.5828,98.9998,168.4793,-0.012241,-0.01130631,0.0,0 STARLINK-5219,1 54094U 22136AV  22337.33334491 -.01130631  00000-0 -12241-1 0  9991,2 54094  53.2173 291.5828 0001155  98.9998 168.4793 15.65468363  7376,6750.029,91.985,372.674,371.114,0.0
54094.0,STARLINK-5219,PAYLOAD,2022-12-03 14:00:01,15.64889833,0.0001192,53.217,290.3595,84.9397,151.9745,-0.013075,-0.0117514,0.0,0 STARLINK-5219,1 54094U 22136AV  22337.58334491 -.01175140  00000-0 -13075-1 0  9998,2 54094  53.2170 290.3595 0001192  84.9397 151.9745 15.64889833  1309,6751.693,92.019,374.362,372.753,0.0
54094.0,STARLINK-5219,PAYLOAD,2022-12-03 22:00:00,15.64059298,0.0001061,53.217,288.7304,85.4286,229.904,-0.013209,-0.01150885,0.0,0 STARLINK-5219,1 54094U 22136AV  22337.91667824 -.01150885  00000-0 -13209-1 0  9992,2 54094  53.2170 288.7304 0001061  85.4286 229.9040 15.64059298  1304,6754.083000000001,92.068,376.664,375.231,0.0
54094.0,STARLINK-5219,PAYLOAD,2022-12-04 06:00:00,15.63243468,0.000108,53.2172,287.1064,72.3467,320.418,-0.013612,-0.01148449,0.0,0 STARLINK-5219,1 54094U 22136AV  22338.25001157 -.01148449  00000-0 -13612-1 0  9992,2 54094  53.2172 287.1064 0001080  72.3467 320.4180 15.63243468  7524,6756.432,92.116,379.027,377.568,0.0
54094.0,STARLINK-5219,PAYLOAD,2022-12-04 14:00:01,15.62433801,0.0001213,53.2169,285.4807,66.9608,42.2573,-0.01412,-0.0115339,0.0,0 STARLINK-5219,1 54094U 22136AV  22338.58334491 -.01153390  00000-0 -14120-1 0  9994,2 54094  53.2169 285.4807 0001213  66.9608  42.2573 15.62433801  1306,6758.766,92.164,381.451,379.811,0.0
54094.0,STARLINK-5219,PAYLOAD,2022-12-04 22:00:00,15.61615382,0.000123,53.2167,283.8576,80.4255,104.2717,-0.014479,-0.01146156,0.0,0 STARLINK-5219,1 54094U 22136AV  22338.91667824 -.01146156  00000-0 -14479-1 0  9999,2 54094  53.2167 283.8576 0001230  80.4255 104.2717 15.61615382  1301,6761.127,92.212,383.824,382.161,0.0
54094.0,STARLINK-5219,PAYLOAD,2022-12-05 06:00:00,15.60795237,0.0001186,53.2169,282.2396,96.8004,162.3975,-0.014828,-0.01137769,0.0,0 STARLINK-5219,1 54094U 22136AV  22339.25001157 -.01137769  00000-0 -14828-1 0  9996,2 54094  53.2169 282.2396 0001186  96.8004 162.3975 15.60795237  7673,6763.496,92.261,386.163,384.559,0.0
54094.0,STARLINK-5219,PAYLOAD,2022-12-05 14:00:01,15.59997272,0.0001028,53.217,280.6195,80.2256,252.5517,-0.015616,-0.0115945,0.0,0 STARLINK-5219,1 54094U 22136AV  22339.58335648 -.01159450  00000-0 -15616-1 0  9994,2 54094  53.2170 280.6195 0001028  80.2256 252.5517 15.59997272  1304,6765.802,92.308,388.362,386.971,0.0
54094.0,STARLINK-5219,PAYLOAD,2022-12-05 22:00:01,15.59165417,0.000108,53.2176,279.0018,73.9126,331.4173,-0.015737,-0.01134338,0.0,0 STARLINK-5219,1 54094U 22136AV  22339.91668981 -.01134338  00000-0 -15737-1 0  9992,2 54094  53.2176 279.0018 0001080  73.9126 331.4173 15.59165417  1302,6768.208000000001,92.357,390.804,389.342,0.0
54094.0,STARLINK-5219,PAYLOAD,2022-12-06 08:00:01,15.58151726,0.0001259,53.2168,276.9866,87.50299999999999,137.0619,-0.016406,-0.01137466,0.0,0 STARLINK-5219,1 54094U 22136AV  22340.33334491 -.01137466  00000-0 -16406-1 0  9995,2 54094  53.2168 276.9866 0001259  87.5030 137.0619 15.58151726  7840,6771.143,92.417,393.861,392.156,0.0
54094.0,STARLINK-5219,PAYLOAD,2022-12-06 14:00:01,15.57555947,0.000123,53.2173,275.7759,79.1926,108.2801,-0.017105,-0.01157313,0.0,0 STARLINK-5219,1 54094U 22136AV  22340.58335648 -.01157313  00000-0 -17105-1 0  9997,2 54094  53.2173 275.7759 0001230  79.1926 108.2801 15.57555947  1304,6772.87,92.453,395.568,393.902,0.0
54094.0,STARLINK-5219,PAYLOAD,2022-12-06 22:00:00,15.56732524,0.0001235,53.2172,274.165,83.5504,173.4721,-0.017427,-0.01144454,0.0,0 STARLINK-5219,1 54094U 22136AV  22340.91667824 -.01144454  00000-0 -17427-1 0  9997,2 54094  53.2172 274.1650 0001235  83.5504 173.4721 15.56732524  1304,6775.2580000000025,92.501,397.96,396.286,0.0
54094.0,STARLINK-5219,PAYLOAD,2022-12-07 08:00:01,15.55706155,0.0001159,53.217,272.1557,64.9688,7.694,-0.017876,-0.01131113,0.0,0 STARLINK-5219,1 54094U 22136AV  22341.33334491 -.01131113  00000-0 -17876-1 0  9991,2 54094  53.2170 272.1557 0001159  64.9688   7.6940 15.55706155  8002,6778.238,92.562,400.888,399.317,0.0
54094.0,STARLINK-5219,PAYLOAD,2022-12-07 22:00:00,15.54307099,0.0001089,53.2168,269.3455,89.5417,10.4342,-0.019455,-0.01165087,0.0,0 STARLINK-5219,1 54094U 22136AV  22341.91667824 -.01165087  00000-0 -19455-1 0  9996,2 54094  53.2168 269.3455 0001089  89.5417  10.4342 15.54307099  1306,6782.305,92.646,404.908,403.431,0.0
54094.0,STARLINK-5219,PAYLOAD,2022-12-08 08:00:01,15.53265405,0.0001146,53.2171,267.343,91.8451,180.1121,-0.019567,-0.01131433,0.0,0 STARLINK-5219,1 54094U 22136AV  22342.33334491 -.01131433  00000-0 -19567-1 0  9996,2 54094  53.2171 267.3430 0001146  91.8451 180.1121 15.53265405  8152,6785.337,92.708,407.979,406.424,0.0
54094.0,STARLINK-5219,PAYLOAD,2022-12-08 14:00:01,15.52656051,0.0001206,53.2173,266.142,89.1282,141.2776,-0.020028,-0.01132535,0.0,0 STARLINK-5219,1 54094U 22136AV  22342.58334491 -.01132535  00000-0 -20028-1 0  9991,2 54094  53.2173 266.1420 0001206  89.1282 141.2776 15.52656051  1303,6787.111999999999,92.744,409.795,408.158,0.0
54094.0,STARLINK-5219,PAYLOAD,2022-12-08 22:00:01,15.51839804,0.0001184,53.2176,264.5429,88.5798,205.6343,-0.020557,-0.01128908,0.0,0 STARLINK-5219,1 54094U 22136AV  22342.91668981 -.01128908  00000-0 -20557-1 0  9998,2 54094  53.2176 264.5429 0001184  88.5798 205.6343 15.51839804  1300,6789.4919999999975,92.793,412.16,410.55300000000005,0.0
54094.0,STARLINK-5219,PAYLOAD,2022-12-09 06:00:02,15.50980631,0.0001305,53.217,262.9486,93.1697,263.8142,-0.018968,-0.01020286,0.0,0 STARLINK-5219,1 54094U 22136AV  22343.25002315 -.01020286  00000-0 -18968-1 0  9992,2 54094  53.2170 262.9486 0001305  93.1697 263.8142 15.50980631  8308,6791.999,92.844,414.75,412.977,0.0
54094.0,STARLINK-5219,PAYLOAD,2022-12-09 14:00:01,15.50137758,0.0001289,53.2174,261.3513,87.8783,330.8325,-0.0064867999999999,-0.00355566,0.0,0 STARLINK-5219,1 54094U 22136AV  22343.58334491 -.00355566  00000-0 -64868-2 0  9993,2 54094  53.2174 261.3513 0001289  87.8783 330.8325 15.50137758  1308,6794.46,92.895,417.201,415.45,0.0
54094.0,STARLINK-5219,PAYLOAD,2022-12-09 16:00:00,15.4999297,0.0001274,53.2173,260.952,81.3665,82.6633,-0.0030246,-0.00169104,0.0,0 STARLINK-5219,1 54094U 22136AV  22343.66667824 -.00169104  00000-0 -30246-2 0  9995,2 54094  53.2173 260.9520 0001274  81.3665  82.6633 15.49992970  8362,6794.884,92.904,417.614,415.883,0.0
